{
    "links": {
        "self": "http://www.neowsapp.com/rest/v1/neo/3796296?api_key=iIulBulltgU6a56xZRHN4H3l9WmuAYTsLGpBGhQ2"
    },
    "id": "3796296",
    "neo_reference_id": "3796296",
    "name": "(2017 WE30)",
    "designation": "2017 WE30",
    "nasa_jpl_url": "http://ssd.jpl.nasa.gov/sbdb.cgi?sstr=3796296",
    "absolute_magnitude_h": 31.854,
    "estimated_diameter": {
        "kilometers": {
            "estimated_diameter_min": 0.0011317617,
            "estimated_diameter_max": 0.002530696
        },
        "meters": {
            "estimated_diameter_min": 1.1317616576,
            "estimated_diameter_max": 2.5306960008
        },
        "miles": {
            "estimated_diameter_min": 0.0007032439,
            "estimated_diameter_max": 0.0015725011
        },
        "feet": {
            "estimated_diameter_min": 3.7131289168,
            "estimated_diameter_max": 8.3028086672
        }
    },
    "is_potentially_hazardous_asteroid": false,
    "close_approach_data": [
        {
            "close_approach_date": "2017-11-26",
            "close_approach_date_full": "2017-Nov-26 17:11",
            "epoch_date_close_approach": 1511716260000,
            "relative_velocity": {
                "kilometers_per_second": "19.1306585892",
                "kilometers_per_hour": "68870.370921251",
                "miles_per_hour": "42793.3701982629"
            },
            "miss_distance": {
                "astronomical": "0.0026835879",
                "lunar": "1.0439156931",
                "kilometers": "401459.033797773",
                "miles": "249455.0762163474"
            },
            "orbiting_body": "Moon"
        },
        {
            "close_approach_date": "2017-11-26",
            "close_approach_date_full": "2017-Nov-26 17:55",
            "epoch_date_close_approach": 1511718900000,
            "relative_velocity": {
                "kilometers_per_second": "18.4928484535",
                "kilometers_per_hour": "66574.2544326875",
                "miles_per_hour": "41366.6527056885"
            },
            "miss_distance": {
                "astronomical": "0.0002012688",
                "lunar": "0.0782935632",
                "kilometers": "30109.383777456",
                "miles": "18709.1035266528"
            },
            "orbiting_body": "Earth"
        },
        {
            "close_approach_date": "2147-11-17",
            "close_approach_date_full": "2147-Nov-17 21:02",
            "epoch_date_close_approach": 5613310920000,
            "relative_velocity": {
                "kilometers_per_second": "24.008697837",
                "kilometers_per_hour": "86431.3122133004",
                "miles_per_hour": "53705.0561916477"
            },
            "miss_distance": {
                "astronomical": "0.2104684032",
                "lunar": "81.8722088448",
                "kilometers": "31485624.821021184",
                "miles": "19564260.0569889792"
            },
            "orbiting_body": "Earth"
        }
    ],
    "orbital_data": {
        "orbit_id": "1",
        "orbit_determination_date": "2018-01-07 06:21:09",
        "first_observation_date": "2017-11-26",
        "last_observation_date": "2017-11-26",
        "data_arc_in_days": null,
        "observations_used": 13,
        "orbit_uncertainty": "9",
        "minimum_orbit_intersection": ".00019537",
        "jupiter_tisserand_invariant": "3.396",
        "epoch_osculation": "2458083.5",
        "eccentricity": ".6728212641206889",
        "semi_major_axis": "2.12284151243302",
        "inclination": "1.018462539271254",
        "ascending_node_longitude": "65.19921970457375",
        "orbital_period": "1129.730319567479",
        "perihelion_distance": ".6945486025099605",
        "perihelion_argument": "73.95122573552135",
        "aphelion_distance": "3.55113442235608",
        "perihelion_time": "2458128.006918875490",
        "mean_anomaly": "345.8174198588291",
        "mean_motion": ".3186601207072384",
        "equinox": "J2000",
        "orbit_class": {
            "orbit_class_type": "APO",
            "orbit_class_description": "Near-Earth asteroid orbits which cross the Earth’s orbit similar to that of 1862 Apollo",
            "orbit_class_range": "a (semi-major axis) > 1.0 AU; q (perihelion) < 1.017 AU"
        }
    },
    "is_sentry_object": false
}